{
  "type": "FeatureCollection",
  "features": [
    {
      "type": "Feature",
      "properties": {
        "norad_id": 30013,
        "name": "FENGYUN 1C DEB",
        "group": "fengyun-1c-debris",
        "lat": 40.484976251128394,
        "lon": -5.654193888322351,
        "alt_km": 841.0462569183383,
        "timestamp": "2025-12-09T07:41:33.481404+00:00",
        "meta_object_name": "FENGYUN 1C DEB",
        "meta_object_id": "1999-025MN",
        "meta_epoch": "2025-12-08T21:40:49.255968",
        "meta_mean_motion": 13.87821534,
        "meta_eccentricity": 0.01283352,
        "meta_inclination": 99.5804,
        "meta_ra_of_asc_node": 2.2071,
        "meta_arg_of_pericenter": 54.1955,
        "meta_mean_anomaly": 64.1851,
        "meta_ephemeris_type": 0,
        "meta_classification_type": "U",
        "meta_norad_cat_id": 30013,
        "meta_element_set_no": 999,
        "meta_rev_at_epoch": 95628,
        "meta_bstar": 0.00033007126,
        "meta_mean_motion_dot": 3.72e-06,
        "meta_mean_motion_ddot": 0,
        "tle_line1": "1 30013U 99025MN  25342.90334787  .00000372  00000+0  33007-3 0  9996",
        "tle_line2": "2 30013  99.5804   2.2071 0128335  54.1955  64.1851 13.87821534956284"
      },
      "geometry": {
        "type": "Point",
        "coordinates": [
          -5.654193888322351,
          40.484976251128394
        ]
      }
    },
    {
      "type": "Feature",
      "properties": {
        "norad_id": 30015,
        "name": "FENGYUN 1C DEB",
        "group": "fengyun-1c-debris",
        "lat": 80.3454402640557,
        "lon": -86.87902336039915,
        "alt_km": 762.9875113861135,
        "timestamp": "2025-12-09T07:41:33.481414+00:00",
        "meta_object_name": "FENGYUN 1C DEB",
        "meta_object_id": "1999-025MQ",
        "meta_epoch": "2025-12-08T23:10:47.370720",
        "meta_mean_motion": 14.30781403,
        "meta_eccentricity": 0.00384596,
        "meta_inclination": 99.2281,
        "meta_ra_of_asc_node": 345.6172,
        "meta_arg_of_pericenter": 135.6978,
        "meta_mean_anomaly": 285.8282,
        "meta_ephemeris_type": 0,
        "meta_classification_type": "U",
        "meta_norad_cat_id": 30015,
        "meta_element_set_no": 999,
        "meta_rev_at_epoch": 98119,
        "meta_bstar": 0.00075858849,
        "meta_mean_motion_dot": 1.955e-05,
        "meta_mean_motion_ddot": 0,
        "tle_line1": "1 30015U 99025MQ  25342.96582605  .00001955  00000+0  75859-3 0  9997",
        "tle_line2": "2 30015  99.2281 345.6172 0038459 135.6978 285.8282 14.30781403981192"
      },
      "geometry": {
        "type": "Point",
        "coordinates": [
          -86.87902336039915,
          80.3454402640557
        ]
      }
    },
    {
      "type": "Feature",
      "properties": {
        "norad_id": 30016,
        "name": "FENGYUN 1C DEB",
        "group": "fengyun-1c-debris",
        "lat": -10.85965273070229,
        "lon": -3.35187888517207,
        "alt_km": 623.355190832348,
        "timestamp": "2025-12-09T07:41:33.481424+00:00",
        "meta_object_name": "FENGYUN 1C DEB",
        "meta_object_id": "1999-025MR",
        "meta_epoch": "2025-12-08T23:52:58.755072",
        "meta_mean_motion": 14.78345714,
        "meta_eccentricity": 0.00472112,
        "meta_inclination": 98.9055,
        "meta_ra_of_asc_node": 354.5648,
        "meta_arg_of_pericenter": 52.5832,
        "meta_mean_anomaly": 6.2365,
        "meta_ephemeris_type": 0,
        "meta_classification_type": "U",
        "meta_norad_cat_id": 30016,
        "meta_element_set_no": 999,
        "meta_rev_at_epoch": 99398,
        "meta_bstar": 0.0022300716,
        "meta_mean_motion_dot": 0.00016499,
        "meta_mean_motion_ddot": 0,
        "tle_line1": "1 30016U 99025MR  25342.99512448  .00016499  00000+0  22301-2 0  9991",
        "tle_line2": "2 30016  98.9055 354.5648 0047211  52.5832   6.2365 14.78345714993987"
      },
      "geometry": {
        "type": "Point",
        "coordinates": [
          -3.35187888517207,
          -10.85965273070229
        ]
      }
    },
    {
      "type": "Feature",
      "properties": {
        "norad_id": 30017,
        "name": "FENGYUN 1C DEB",
        "group": "fengyun-1c-debris",
        "lat": -17.29409887344179,
        "lon": 30.46105170659004,
        "alt_km": 835.1448175792593,
        "timestamp": "2025-12-09T07:41:33.481434+00:00",
        "meta_object_name": "FENGYUN 1C DEB",
        "meta_object_id": "1999-025MS",
        "meta_epoch": "2025-12-08T15:20:27.179808",
        "meta_mean_motion": 14.61182312,
        "meta_eccentricity": 0.0217281,
        "meta_inclination": 98.7546,
        "meta_ra_of_asc_node": 26.99,
        "meta_arg_of_pericenter": 187.694,
        "meta_mean_anomaly": 172.0908,
        "meta_ephemeris_type": 0,
        "meta_classification_type": "U",
        "meta_norad_cat_id": 30017,
        "meta_element_set_no": 999,
        "meta_rev_at_epoch": 384,
        "meta_bstar": 0.00032546,
        "meta_mean_motion_dot": 2.176e-05,
        "meta_mean_motion_ddot": 0,
        "tle_line1": "1 30017U 99025MS  25342.63920347  .00002176  00000+0  32546-3 0  9994",
        "tle_line2": "2 30017  98.7546  26.9900 0217281 187.6940 172.0908 14.61182312  3845"
      },
      "geometry": {
        "type": "Point",
        "coordinates": [
          30.46105170659004,
          -17.29409887344179
        ]
      }
    },
    {
      "type": "Feature",
      "properties": {
        "norad_id": 30018,
        "name": "FENGYUN 1C DEB",
        "group": "fengyun-1c-debris",
        "lat": -47.59726560840359,
        "lon": -124.0240974128215,
        "alt_km": 581.8127714524453,
        "timestamp": "2025-12-09T07:41:33.481445+00:00",
        "meta_object_name": "FENGYUN 1C DEB",
        "meta_object_id": "1999-025MT",
        "meta_epoch": "2025-12-08T19:48:48.078144",
        "meta_mean_motion": 14.73107762,
        "meta_eccentricity": 0.01166543,
        "meta_inclination": 98.756,
        "meta_ra_of_asc_node": 65.1588,
        "meta_arg_of_pericenter": 207.7289,
        "meta_mean_anomaly": 276.6536,
        "meta_ephemeris_type": 0,
        "meta_classification_type": "U",
        "meta_norad_cat_id": 30018,
        "meta_element_set_no": 999,
        "meta_rev_at_epoch": 379,
        "meta_bstar": 0.0013525727,
        "meta_mean_motion_dot": 9.651e-05,
        "meta_mean_motion_ddot": 0,
        "tle_line1": "1 30018U 99025MT  25342.82555646  .00009651  00000+0  13526-2 0  9993",
        "tle_line2": "2 30018  98.7560  65.1588 0116654 207.7289 276.6536 14.73107762  3792"
      },
      "geometry": {
        "type": "Point",
        "coordinates": [
          -124.0240974128215,
          -47.59726560840359
        ]
      }
    },
    {
      "type": "Feature",
      "properties": {
        "norad_id": 30020,
        "name": "FENGYUN 1C DEB",
        "group": "fengyun-1c-debris",
        "lat": 81.0630695170792,
        "lon": -94.83454356470426,
        "alt_km": 738.8942162776075,
        "timestamp": "2025-12-09T07:41:33.481455+00:00",
        "meta_object_name": "FENGYUN 1C DEB",
        "meta_object_id": "1999-025MV",
        "meta_epoch": "2025-12-08T23:00:14.423328",
        "meta_mean_motion": 14.04453901,
        "meta_eccentricity": 0.01840124,
        "meta_inclination": 98.847,
        "meta_ra_of_asc_node": 346.8656,
        "meta_arg_of_pericenter": 81.0306,
        "meta_mean_anomaly": 338.0202,
        "meta_ephemeris_type": 0,
        "meta_classification_type": "U",
        "meta_norad_cat_id": 30020,
        "meta_element_set_no": 999,
        "meta_rev_at_epoch": 96605,
        "meta_bstar": 0.00080013518,
        "meta_mean_motion_dot": 1.442e-05,
        "meta_mean_motion_ddot": 0,
        "tle_line1": "1 30020U 99025MV  25342.95850027  .00001442  00000+0  80014-3 0  9998",
        "tle_line2": "2 30020  98.8470 346.8656 0184012  81.0306 338.0202 14.04453901966050"
      },
      "geometry": {
        "type": "Point",
        "coordinates": [
          -94.83454356470426,
          81.0630695170792
        ]
      }
    },
    {
      "type": "Feature",
      "properties": {
        "norad_id": 30021,
        "name": "FENGYUN 1C DEB",
        "group": "fengyun-1c-debris",
        "lat": -63.16994211107581,
        "lon": 137.02862867951993,
        "alt_km": 851.8363660383229,
        "timestamp": "2025-12-09T07:41:33.481466+00:00",
        "meta_object_name": "FENGYUN 1C DEB",
        "meta_object_id": "1999-025MW",
        "meta_epoch": "2025-12-08T22:15:49.214880",
        "meta_mean_motion": 14.0488797,
        "meta_eccentricity": 0.00720595,
        "meta_inclination": 98.8351,
        "meta_ra_of_asc_node": 334.5549,
        "meta_arg_of_pericenter": 297.8753,
        "meta_mean_anomaly": 121.3904,
        "meta_ephemeris_type": 0,
        "meta_classification_type": "U",
        "meta_norad_cat_id": 30021,
        "meta_element_set_no": 999,
        "meta_rev_at_epoch": 96878,
        "meta_bstar": 0.00029763763,
        "meta_mean_motion_dot": 4.46e-06,
        "meta_mean_motion_ddot": 0,
        "tle_line1": "1 30021U 99025MW  25342.92765295  .00000446  00000+0  29764-3 0  9996",
        "tle_line2": "2 30021  98.8351 334.5549 0072059 297.8753 121.3904 14.04887970968785"
      },
      "geometry": {
        "type": "Point",
        "coordinates": [
          137.02862867951993,
          -63.16994211107581
        ]
      }
    }
  ]
}